
# Worst residual: 22.42 km
# MJD 58063.000000 (2017 Nov  6  0:00)
1964-040B = NORAD 00837 = Vela 2B
1 00837U 64040B   17310.49919926  .00000000  00000-0  00000-0 0  4673
2 00837 028.1162 254.2190 8330276 249.6088 311.7291 00.24056999    07

# Worst residual: 42.42 km
# MJD 58064.000000 (2017 Nov  7  0:00)
1964-040B = NORAD 00837 = Vela 2B
1 00837U 64040B   17311.49919926  .00000000  00000-0  00000-0 0  4674
2 00837 028.0768 254.0308 8325695 249.6937 038.3372 00.24071881    08

# Worst residual: 7.14 km
# MJD 58065.000000 (2017 Nov  8  0:00)
1964-040B = NORAD 00837 = Vela 2B
1 00837U 64040B   17312.49919926  .00000000  00000-0  00000-0 0  4675
2 00837 028.0318 253.8257 8332316 249.9017 124.5043 00.23997758    01

# Worst residual: 5.01 km
# MJD 58066.000000 (2017 Nov  9  0:00)
1964-040B = NORAD 00837 = Vela 2B
1 00837U 64040B   17313.49919926  .00000000  00000-0  00000-0 0  4676
2 00837 028.0164 253.7349 8329482 250.0009 210.7571 00.23988631    09

# Worst residual: 1.57 km
# MJD 58067.000000 (2017 Nov 10  0:00)
1964-040B = NORAD 00837 = Vela 2B
1 00837U 64040B   17314.49919926  .00000000  00000-0  00000-0 0  4677
2 00837 027.9929 253.6727 8328066 250.0524 297.1113 00.23988908    02

# Worst residual: 14.64 km
# MJD 58068.000000 (2017 Nov 11  0:00)
1964-040B = NORAD 00837 = Vela 2B
1 00837U 64040B   17315.49919926  .00000000  00000-0  00000-0 0  4678
2 00837 027.9695 253.4472 8329341 250.2784 023.4875 00.23980004    08

# Worst residual: 5.01 km
# MJD 58069.000000 (2017 Nov 12  0:00)
1964-040B = NORAD 00837 = Vela 2B
1 00837U 64040B   17316.49919926  .00000000  00000-0  00000-0 0  4679
2 00837 027.9360 253.2785 8325825 250.4412 109.8822 00.23984485    03

# Worst residual: 4.67 km
# MJD 58070.000000 (2017 Nov 13  0:00)
1964-040B = NORAD 00837 = Vela 2B
1 00837U 64040B   17317.49919926  .00000000  00000-0  00000-0 0  4670
2 00837 027.9443 253.2815 8328072 250.4243 196.2775 00.23992741    09

# Worst residual: 11.90 km
# MJD 58071.000000 (2017 Nov 14  0:00)
1964-040B = NORAD 00837 = Vela 2B
1 00837U 64040B   17318.49919926  .00000000  00000-0  00000-0 0  4671
2 00837 027.9233 253.2134 8330261 250.5203 282.5497 00.24016478    05

# Worst residual: 18.85 km
# MJD 58072.000000 (2017 Nov 15  0:00)
1964-040B = NORAD 00837 = Vela 2B
1 00837U 64040B   17319.49919926  .00000000  00000-0  00000-0 0  4672
2 00837 027.8975 252.9972 8324009 250.6730 008.9723 00.24042258    09

# Worst residual: 2.90 km
# MJD 58073.000000 (2017 Nov 16  0:00)
1964-040B = NORAD 00837 = Vela 2B
1 00837U 64040B   17320.49919926  .00000000  00000-0  00000-0 0  4674
2 00837 027.8661 252.8184 8324448 250.8576 095.3582 00.23994868    07

# Worst residual: 1.16 km
# MJD 58074.000000 (2017 Nov 17  0:00)
1964-040B = NORAD 00837 = Vela 2B
1 00837U 64040B   17321.49919926  .00000000  00000-0  00000-0 0  4675
2 00837 027.8441 252.6711 8323811 250.9712 181.8230 00.24000240    07

# Worst residual: 7.48 km
# MJD 58075.000000 (2017 Nov 18  0:00)
1964-040B = NORAD 00837 = Vela 2B
1 00837U 64040B   17322.49919926  .00000000  00000-0  00000-0 0  4676
2 00837 027.8181 252.5336 8320829 251.0923 268.1790 00.24001298    06

# Worst residual: 28.55 km
# MJD 58076.000000 (2017 Nov 19  0:00)
1964-040B = NORAD 00837 = Vela 2B
1 00837U 64040B   17323.49919926  .00000000  00000-0  00000-0 0  4677
2 00837 027.7891 252.3626 8311445 251.2321 354.5008 00.24069870    03

# Worst residual: 11.47 km
# MJD 58077.000000 (2017 Nov 20  0:00)
1964-040B = NORAD 00837 = Vela 2B
1 00837U 64040B   17324.49919926  .00000000  00000-0  00000-0 0  4678
2 00837 027.7475 252.1549 8318747 251.3597 080.9399 00.24019707    08

# Worst residual: 5.53 km
# MJD 58078.000000 (2017 Nov 21  0:00)
1964-040B = NORAD 00837 = Vela 2B
1 00837U 64040B   17325.49919926  .00000000  00000-0  00000-0 0  4679
2 00837 027.7247 251.9988 8317766 251.4933 167.4072 00.24015340    02

# Worst residual: 7.00 km
# MJD 58079.000000 (2017 Nov 22  0:00)
1964-040B = NORAD 00837 = Vela 2B
1 00837U 64040B   17326.49919926  .00000000  00000-0  00000-0 0  4670
2 00837 027.7139 251.9760 8313793 251.4742 254.0162 00.24001808    01

# Worst residual: 9.43 km
# MJD 58080.000000 (2017 Nov 23  0:00)
1964-040B = NORAD 00837 = Vela 2B
1 00837U 64040B   17327.49919926  .00000000  00000-0  00000-0 0  4671
2 00837 027.6866 251.8570 8313515 251.5621 340.4774 00.23985607    00

# Worst residual: 5.57 km
# MJD 58081.000000 (2017 Nov 24  0:00)
1964-040B = NORAD 00837 = Vela 2B
1 00837U 64040B   17328.49919926  .00000000  00000-0  00000-0 0  4672
2 00837 027.6291 251.6253 8313011 251.7626 066.8487 00.23992004    05

# Worst residual: 6.36 km
# MJD 58082.000000 (2017 Nov 25  0:00)
1964-040B = NORAD 00837 = Vela 2B
1 00837U 64040B   17329.49919926  .00000000  00000-0  00000-0 0  4673
2 00837 027.5533 251.2735 8312117 252.0686 153.2347 00.23990641    01

# Worst residual: 6.32 km
# MJD 58083.000000 (2017 Nov 26  0:00)
1964-040B = NORAD 00837 = Vela 2B
1 00837U 64040B   17330.49919926  .00000000  00000-0  00000-0 0  4675
2 00837 027.4982 250.8749 8312618 252.4046 239.7018 00.23992466    00

# Worst residual: 13.54 km
# MJD 58084.000000 (2017 Nov 27  0:00)
1964-040B = NORAD 00837 = Vela 2B
1 00837U 64040B   17331.49919926  .00000000  00000-0  00000-0 0  4676
2 00837 027.4753 250.4913 8312316 252.7515 326.0775 00.24003240    08

# Worst residual: 11.20 km
# MJD 58085.000000 (2017 Nov 28  0:00)
1964-040B = NORAD 00837 = Vela 2B
1 00837U 64040B   17332.49919926  .00000000  00000-0  00000-0 0  4677
2 00837 027.4538 250.2681 8311023 252.9812 052.4487 00.23974043    02

# Worst residual: 9.56 km
# MJD 58086.000000 (2017 Nov 29  0:00)
1964-040B = NORAD 00837 = Vela 2B
1 00837U 64040B   17333.49919926  .00000000  00000-0  00000-0 0  4678
2 00837 027.4421 250.1371 8309867 253.0418 139.0708 00.24014087    07

# Worst residual: 3.05 km
# MJD 58087.000000 (2017 Nov 30  0:00)
1964-040B = NORAD 00837 = Vela 2B
1 00837U 64040B   17334.49919926  .00000000  00000-0  00000-0 0  4679
2 00837 027.4241 250.0020 8311475 253.1265 225.7226 00.24021256    00

# Worst residual: 38.70 km
# MJD 58088.000000 (2017 Dec  1  0:00)
1964-040B = NORAD 00837 = Vela 2B
1 00837U 64040B   17335.49919926  .00000000  00000-0  00000-0 0  4670
2 00837 027.3979 249.7922 8304960 253.3231 312.0554 00.24053477    03

# Worst residual: 42.18 km
# MJD 58089.000000 (2017 Dec  2  0:00)
1964-040B = NORAD 00837 = Vela 2B
1 00837U 64040B   17336.49919926  .00000000  00000-0  00000-0 0  4671
2 00837 027.3763 249.5761 8298008 253.3930 038.6221 00.24058690    08

# Worst residual: 8.96 km
# MJD 58090.000000 (2017 Dec  3  0:00)
1964-040B = NORAD 00837 = Vela 2B
1 00837U 64040B   17337.49919926  .00000000  00000-0  00000-0 0  4672
2 00837 027.3413 249.3505 8307522 253.5946 124.7896 00.23998863    04
